BEIDOU-2 IGSO-1 (C06)   
1 36828U 10036A   25361.67929603 -.00000041  00000+0  00000+0 0  9990
2 36828  54.2891 164.5130 0051593 215.8264  68.5237  1.00271499 56374
BEIDOU-2 G4 (C04)       
1 37210U 10057A   25362.30917648 -.00000091  00000+0  00000+0 0  9991
2 37210   3.2207  69.8794 0010589 194.3540 104.1731  1.00270983 55570
BEIDOU-2 IGSO-2 (C07)   
1 37256U 10068A   25361.70552544 -.00000207  00000+0  00000+0 0  9995
2 37256  47.8583 273.9658 0048284 215.8282 328.7648  1.00281569 55071
BEIDOU-2 IGSO-3 (C08)   
1 37384U 11013A   25361.94948586 -.00000175  00000+0  00000+0 0  9993
2 37384  62.1628  41.7721 0034861 188.0830 315.7805  1.00266744 53944
BEIDOU-2 IGSO-4 (C09)   
1 37763U 11038A   25361.96726589  .00000080  00000+0  00000+0 0  9994
2 37763  54.5868 167.2115 0149811 230.1937 142.2858  1.00278482 52937
BEIDOU-2 IGSO-5 (C10)   
1 37948U 11073A   25361.73484813 -.00000150  00000+0  00000+0 0  9993
2 37948  47.9920 273.6742 0109578 222.0254 319.1001  1.00287450 51415
BEIDOU-2 G5 (C05)       
1 38091U 12008A   25362.12397352  .00000078  00000+0  00000+0 0  9995
2 38091   3.1451  70.6524 0013288 232.0463 257.4893  1.00270362 50658
BEIDOU-2 M3 (C11)       
1 38250U 12018A   25361.36207272 -.00000060  00000+0  00000+0 0  9991
2 38250  55.9075 310.6667 0024055 275.5962  84.1341  1.86230056 92746
BEIDOU-2 M4 (C12)       
1 38251U 12018B   25360.22023248 -.00000055  00000+0  00000+0 0  9999
2 38251  55.8099 309.9329 0015168 279.7877  80.0472  1.86229697 92721
BEIDOU-2 M6 (C14)       
1 38775U 12050B   25358.32020102 -.00000024  00000+0  00000+0 0  9996
2 38775  56.3880  68.6832 0011487 343.1884  16.8281  1.86230801 90056
BEIDOU-2 G6 (C02)       
1 38953U 12059A   25362.05767311 -.00000155  00000+0  00000+0 0  9993
2 38953   3.9860  75.3604 0008032 292.8007 193.3401  1.00274140 48194
BEIDOU-3S IGSO-1S (C31) 
1 40549U 15019A   25361.81090998 -.00000186  00000+0  00000+0 0  9993
2 40549  49.5231 297.5337 0036474 194.0602 351.7810  1.00289723 39357
BEIDOU-3S M2S (C58)     
1 40748U 15037A   25362.03615363 -.00000063  00000+0  00000+0 0  9992
2 40748  55.0251 307.9393 0011788 271.2776  88.5926  1.86229486 70937
BEIDOU-3S M1S (C57)     
1 40749U 15037B   25361.19052573 -.00000059  00000+0  00000+0 0  9992
2 40749  55.0221 307.9572 0003729   3.3585 356.6510  1.86253811 70928
BEIDOU-3S IGSO-2S (C56) 
1 40938U 15053A   25361.70309876 -.00000127  00000+0  00000+0 0  9994
2 40938  49.4872 260.8298 0060777 188.2166 356.1961  1.00266532 37639
BEIDOU-2 IGSO-6 (C13)   
1 41434U 16021A   25361.96353677 -.00000146  00000+0  00000+0 0  9999
2 41434  59.9862  39.7456 0060751 230.7647 266.8546  1.00289900 35766
BEIDOU-2 G7 (C03)       
1 41586U 16037A   25362.27694125 -.00000332  00000+0  00000+0 0  9992
2 41586   1.7927  67.9366 0005193   7.4244 231.7870  1.00277420  5172
BEIDOU-3 M1 (C19)       
1 43001U 17069A   25359.15958241 -.00000025  00000+0  00000+0 0  9996
2 43001  56.5365  68.8241 0009789 302.2681  57.6912  1.86231313 55361
BEIDOU-3 M2 (C20)       
1 43002U 17069B   25361.78273207 -.00000039  00000+0  00000+0 0  9996
2 43002  56.5384  68.7730 0006885 327.1463  32.8587  1.86230977 55406
BEIDOU-3 M7 (C27)       
1 43107U 18003A   25362.06249927 -.00000064  00000+0  00000+0 0  9993
2 43107  54.4829 308.2829 0002990  66.0862 293.9503  1.86232477 54166
BEIDOU-3 M8 (C28)       
1 43108U 18003B   25362.00752796 -.00000064  00000+0  00000+0 0  9991
2 43108  54.4759 308.2675 0004526 279.8657  80.0885  1.86230939 54171
BEIDOU-3 M4 (C22)       
1 43207U 18018A   25359.76478580 -.00000027  00000+0  00000+0 0  9991
2 43207  56.4961  68.8740 0004229   1.2680 358.7861  1.86231089 53516
BEIDOU-3 M3 (C21)       
1 43208U 18018B   25360.36823819 -.00000030  00000+0  00000+0 0  9993
2 43208  56.4961  68.8580 0007147 313.9083  46.0843  1.86231383 53526
BEIDOU-3 M9 (C29)       
1 43245U 18029A   25361.65848030 -.00000061  00000+0  00000+0 0  9995
2 43245  54.3522 305.9487 0001517 291.5675  68.4241  1.86227963 52709
BEIDOU-3 M10 (C30)      
1 43246U 18029B   25362.13062142 -.00000064  00000+0  00000+0 0  9995
2 43246  54.3491 305.9589 0004393   3.7326 356.2772  1.86229083 52699
BEIDOU-2 IGSO-7 (C16)   
1 43539U 18057A   25357.87768133 -.00000061  00000+0  00000+0 0  9996
2 43539  55.1784 164.5741 0093058 235.1099 119.1175  1.00254881 27360
BEIDOU-3 M5 (C23)       
1 43581U 18062A   25361.81822878  .00000133  00000+0  00000+0 0  9994
2 43581  54.0901 188.1303 0001872 359.5763   0.4604  1.86228607 50449
BEIDOU-3 M6 (C24)       
1 43582U 18062B   25357.92255485  .00000100  00000+0  00000+0 0  9990
2 43582  54.0895 188.2520 0007870  49.2706 310.8346  1.86229712 50379
BEIDOU-3 M12 (C26)      
1 43602U 18067A   25361.61920964  .00000132  00000+0  00000+0 0  9995
2 43602  54.1839 186.8582 0009199  42.0112 318.0937  1.86227801 49923
BEIDOU-3 M11 (C25)      
1 43603U 18067B   25358.53199434  .00000105  00000+0  00000+0 0  9993
2 43603  54.1810 186.9270 0005628  37.8730 322.1992  1.86227356 49897
BEIDOU-3 M13 (C32)      
1 43622U 18072A   25361.71019086 -.00000039  00000+0  00000+0 0  9995
2 43622  56.4713  68.3249 0006631 298.1256  61.8558  1.86230986 49465
BEIDOU-3 M14 (C33)      
1 43623U 18072B   25362.11260947 -.00000042  00000+0  00000+0 0  9999
2 43623  56.4737  68.3056 0003703 326.4428  33.5810  1.86231029 49467
BEIDOU-3 M16 (C35)      
1 43647U 18078A   25362.27023497 -.00000064  00000+0  00000+0 0  9999
2 43647  54.2473 305.9784 0007534  21.0463 338.9908  1.86232159 48977
BEIDOU-3 M15 (C34)      
1 43648U 18078B   25361.32556263 -.00000060  00000+0  00000+0 0  9993
2 43648  54.2443 306.0127 0004082  20.0371 339.9874  1.86232284 48972
BEIDOU-3 G1 (C59)       
1 43683U 18085A   25362.28274795 -.00000256  00000+0  00000+0 0  9990
2 43683   2.6445 102.5033 0001996  60.7562 175.5263  1.00275868 26343
BEIDOU-3 M17 (C36)      
1 43706U 18093A   25362.10502737  .00000135  00000+0  00000+0 0  9991
2 43706  54.1736 188.1002 0005980 306.5950 109.5659  1.86228176 48354
BEIDOU-3 M18 (C37)      
1 43707U 18093B   25361.88290169  .00000134  00000+0  00000+0 0  9998
2 43707  54.1737 188.0995 0006122 354.0683   5.9615  1.86226530 48348
BEIDOU-2 G8 (C01)       
1 44231U 19027A   25362.28370128 -.00000225  00000+0  00000+0 0  9990
2 44231   1.6989  74.7489 0008398 258.2916  10.6263  1.00273061 24362
BEIDOU-3 IGSO-2 (C39)   
1 44337U 19035A   25361.86949866 -.00000052  00000+0  00000+0 0  9998
2 44337  55.2295 160.3686 0037913 202.6993 165.7886  1.00266265 23953
BEIDOU-3 M24 (C46)      
1 44542U 19061A   25361.95374810  .00000134  00000+0  00000+0 0  9996
2 44542  54.4008 188.5026 0009533  26.4081 333.6784  1.86229280 42607
BEIDOU-3 M23 (C45)      
1 44543U 19061B   25362.27335476  .00000136  00000+0  00000+0 0  9990
2 44543  54.3995 188.4601 0005956  25.7030 101.3284  1.86227486 42613
BEIDOU-3 M22 (C44)      
1 44793U 19078A   25360.18284948 -.00000056  00000+0  00000+0 0  9992
2 44793  54.0960 305.9151 0006121  23.7349 336.3032  1.86232141 41424
BEIDOU-3 M21 (C43)      
1 44794U 19078B   25361.93171014 -.00000063  00000+0  00000+0 0  9994
2 44794  54.0678 305.8186 0004298  13.1647 346.8538  1.86227817 41460
BEIDOU-3 M19 (C41)      
1 44864U 19090A   25362.27842167 -.00000043  00000+0  00000+0 0  9996
2 44864  56.4057  68.4467 0018573 285.7273 142.6352  1.86231431 41050
BEIDOU-3 M20 (C42)      
1 44865U 19090B   25362.13097524 -.00000042  00000+0  00000+0 0  9990
2 44865  56.4071  68.4858 0015712 297.6092 121.5111  1.86231358 41039
BEIDOU-3 G2 (C60)       
1 45344U 20017A   25362.19141935 -.00000119  00000+0  00000+0 0  9991
2 45344   2.5243  44.1966 0002271 236.8596 324.8099  1.00271554 21541
BEIDOU-3 G3 (C61)       
1 45807U 20040A   25362.27694125 -.00000332  00000+0  00000+0 0  9991
2 45807   2.0265  66.7162 0006573 307.6494 292.7980  1.00265491 20358
BEIDOU-3 G4 (C62)       
1 56564U 23066A   25362.21543590 -.00000088  00000+0  00000+0 0  9995
2 56564   0.7827 303.2937 0002456 232.4342 158.8070  1.00270362  9689
BEIDOU-3 M28 (C50)      
1 58654U 23207A   25360.39896605 -.00000033  00000+0  00000+0 0  9999
2 58654  55.5960  68.1388 0002968 276.5456  83.4720  1.86229622 13628
BEIDOU-3 M26 (C48)      
1 58655U 23207B   25361.27039819 -.00000038  00000+0  00000+0 0  9999
2 58655  55.5988  68.0955 0004292 262.2645  97.7357  1.86231136 13629
BEIDOU-3 M25 (C47)      
1 61186U 24168B   25362.28985748 -.00000065  00000+0  00000+0 0  9992
2 61186  54.6280 308.1820 0005364 300.7656 139.5875  1.86229827  8603
BEIDOU-3 M27 (C49)      
1 61187U 24168C   25362.21054822 -.00000065  00000+0  00000+0 0  9996
2 61187  54.6235 308.1684 0002531 342.9063 179.2256  1.86229992  6071
